STARLINK-30598          
1 58079U 23160E   26068.08445074  .00000041  00000+0  10999-4 0  9991
2 58079  42.9990  81.2724 0000424 309.5491  50.5323 15.27576958132851
2025-155V               
1 64895U 25155V   26068.85787115  .00013705  00000+0  51002-3 0  9990
2 64895  97.4485  37.2490 0008035 152.8264 207.3397 15.27583301 65579
